{
    "links": {
        "self": "http://www.neowsapp.com/rest/v1/neo/3991666?api_key=iIulBulltgU6a56xZRHN4H3l9WmuAYTsLGpBGhQ2"
    },
    "id": "3991666",
    "neo_reference_id": "3991666",
    "name": "(2020 DO1)",
    "designation": "2020 DO1",
    "nasa_jpl_url": "http://ssd.jpl.nasa.gov/sbdb.cgi?sstr=3991666",
    "absolute_magnitude_h": 25.448,
    "estimated_diameter": {
        "kilometers": {
            "estimated_diameter_min": 0.0216249433,
            "estimated_diameter_max": 0.0483548431
        },
        "meters": {
            "estimated_diameter_min": 21.624943259,
            "estimated_diameter_max": 48.3548431367
        },
        "miles": {
            "estimated_diameter_min": 0.0134371126,
            "estimated_diameter_max": 0.0300462972
        },
        "feet": {
            "estimated_diameter_min": 70.9479788418,
            "estimated_diameter_max": 158.6445035565
        }
    },
    "is_potentially_hazardous_asteroid": false,
    "close_approach_data": [
        {
            "close_approach_date": "2020-02-02",
            "close_approach_date_full": "2020-Feb-02 09:44",
            "epoch_date_close_approach": 1580636640000,
            "relative_velocity": {
                "kilometers_per_second": "6.4953789005",
                "kilometers_per_hour": "23383.3640418128",
                "miles_per_hour": "14529.5130625364"
            },
            "miss_distance": {
                "astronomical": "0.0370490565",
                "lunar": "14.4120829785",
                "kilometers": "5542459.937909655",
                "miles": "3443924.908497039"
            },
            "orbiting_body": "Earth"
        }
    ],
    "orbital_data": {
        "orbit_id": "4",
        "orbit_determination_date": "2020-08-22 06:32:54",
        "first_observation_date": "2020-02-17",
        "last_observation_date": "2020-03-01",
        "data_arc_in_days": 13,
        "observations_used": 24,
        "orbit_uncertainty": "8",
        "minimum_orbit_intersection": ".027691",
        "jupiter_tisserand_invariant": "4.570",
        "epoch_osculation": "2458898.5",
        "eccentricity": ".3425161837036776",
        "semi_major_axis": "1.451557369431834",
        "inclination": "6.698755251535493",
        "ascending_node_longitude": "328.4290231560348",
        "orbital_period": "638.7776823847386",
        "perihelion_distance": ".9543754788270931",
        "perihelion_argument": "133.2137944711465",
        "aphelion_distance": "1.948739260036575",
        "perihelion_time": "2458854.857672999654",
        "mean_anomaly": "24.59578371847627",
        "mean_motion": ".5635763582973308",
        "equinox": "J2000",
        "orbit_class": {
            "orbit_class_type": "APO",
            "orbit_class_description": "Near-Earth asteroid orbits which cross the Earth’s orbit similar to that of 1862 Apollo",
            "orbit_class_range": "a (semi-major axis) > 1.0 AU; q (perihelion) < 1.017 AU"
        }
    },
    "is_sentry_object": false
}